NORAD_CAT_ID,OBJECT_NAME,OBJECT_TYPE,EPOCH,MEAN_MOTION,ECCENTRICITY,INCLINATION,RA_OF_ASC_NODE,ARG_OF_PERICENTER,MEAN_ANOMALY,BSTAR,MEAN_MOTION_DOT,MEAN_MOTION_DDOT,TLE_LINE0,TLE_LINE1,TLE_LINE2,SEMIMAJOR_AXIS,PERIOD,APOGEE,PERIGEE,DECAYED
52110.0,STARLINK-3687,PAYLOAD,2023-04-12 04:55:59,15.08837249,0.0001521,53.2183,168.7963,101.5011,258.6152,0.0004203,6.407e-05,0.0,0 STARLINK-3687,1 52110U 22029Y   23102.20554474  .00006407  00000-0  42030-3 0  9992,2 52110  53.2183 168.7963 0001521 101.5011 258.6152 15.08837249 60384,6917.889,95.438,540.806,538.702,0.0
52110.0,STARLINK-3687,PAYLOAD,2023-04-12 11:17:31,15.08824956,0.0001653,53.2176,167.6059,100.958,259.1598,0.00037136,5.625e-05,0.0,0 STARLINK-3687,1 52110U 22029Y   23102.47050584  .00005625  00000-0  37136-3 0  9996,2 52110  53.2176 167.6059 0001653 100.9580 259.1598 15.08824956 60426,6917.926,95.439,540.935,538.648,0.0
52110.0,STARLINK-3687,PAYLOAD,2023-04-13 09:32:55,15.08850689,0.0001756,53.2175,163.4437,105.3281,254.7906,-0.00013044,-2.364e-05,0.0,0 STARLINK-3687,1 52110U 22029Y   23103.39786051 -.00002364  00000-0 -13044-3 0  9994,2 52110  53.2175 163.4437 0001756 105.3281 254.7906 15.08850689 60561,6917.848,95.437,540.927,538.498,0.0
52110.0,STARLINK-3687,PAYLOAD,2023-04-14 12:34:27,15.08847864,0.0001802,53.2176,158.3895,105.4615,254.6576,0.00015944,2.251e-05,0.0,0 STARLINK-3687,1 52110U 22029Y   23104.52392995  .00002251  00000-0  15944-3 0  9994,2 52110  53.2176 158.3895 0001802 105.4615 254.6576 15.08847864 60739,6917.856,95.437,540.968,538.475,0.0
52110.0,STARLINK-3687,PAYLOAD,2023-04-14 20:31:24,15.0883264,0.0001196,53.2175,156.9029,93.4996,266.6133,3.0597e-05,1.99e-06,0.0,0 STARLINK-3687,1 52110U 22029Y   23104.85514133  .00000199  00000-0  30597-4 0  9991,2 52110  53.2175 156.9029 0001196  93.4996 266.6133 15.08832640 60788,6917.903,95.438,540.595,538.941,0.0
52110.0,STARLINK-3687,PAYLOAD,2023-04-15 12:25:15,15.08837489,0.000165,53.2164,153.9278,82.2359,277.8821,-1.4327e-05,-5.16e-06,0.0,0 STARLINK-3687,1 52110U 22029Y   23105.51753875 -.00000516  00000-0 -14327-4 0  9991,2 52110  53.2164 153.9278 0001650  82.2359 277.8821 15.08837489 60888,6917.888,95.438,540.895,538.612,0.0
52110.0,STARLINK-3687,PAYLOAD,2023-04-15 20:22:11,15.08838284,0.0001395,53.2155,152.439,87.0369,273.0783,1.888e-05,1.3e-07,0.0,0 STARLINK-3687,1 52110U 22029Y   23105.84873861  .00000013  00000-0  18880-4 0  9993,2 52110  53.2155 152.4390 0001395  87.0369 273.0783 15.08838284 60932,6917.886,95.438,540.716,538.786,0.0
52110.0,STARLINK-3687,PAYLOAD,2023-04-16 10:40:39,15.08844123,0.0001465,53.2156,149.763,83.9676,276.1483,0.00019027,2.742e-05,0.0,0 STARLINK-3687,1 52110U 22029Y   23106.44489737  .00002742  00000-0  19027-3 0  9999,2 52110  53.2156 149.7630 0001465  83.9676 276.1483 15.08844123 61024,6917.868,95.437,540.746,538.719,0.0
52110.0,STARLINK-3687,PAYLOAD,2023-04-16 20:12:58,15.08828487,8.47e-05,53.2155,147.9818,79.673,280.4358,-3.6414e-05,-8.67e-06,0.0,0 STARLINK-3687,1 52110U 22029Y   23106.84234171 -.00000867  00000-0 -36414-4 0  9991,2 52110  53.2155 147.9818 0000847  79.6730 280.4358 15.08828487 61087,6917.916,95.438,540.367,539.195,0.0
52110.0,STARLINK-3687,PAYLOAD,2023-04-17 08:56:03,15.08833828,0.0001537,53.2155,145.6005,81.3144,278.8022,7.1673e-05,8.53e-06,0.0,0 STARLINK-3687,1 52110U 22029Y   23107.37226600  .00000853  00000-0  71673-4 0  9997,2 52110  53.2155 145.6005 0001537  81.3144 278.8022 15.08833828 61169,6917.899,95.438,540.828,538.701,0.0
52110.0,STARLINK-3687,PAYLOAD,2023-04-17 20:03:45,15.08837783,0.0001554,53.2167,143.5192,86.2669,273.8501,0.0001257,1.713e-05,0.0,0 STARLINK-3687,1 52110U 22029Y   23107.83594597  .00001713  00000-0  12570-3 0  9997,2 52110  53.2167 143.5192 0001554  86.2669 273.8501 15.08837783 61230,6917.887,95.438,540.827,538.677,0.0
52110.0,STARLINK-3687,PAYLOAD,2023-04-18 08:46:50,15.08845702,0.0001528,53.2165,141.141,86.3302,273.7865,0.00014657,2.046e-05,0.0,0 STARLINK-3687,1 52110U 22029Y   23108.36586306  .00002046  00000-0  14657-3 0  9993,2 52110  53.2165 141.1410 0001528  86.3302 273.7865 15.08845702 61312,6917.863,95.437,540.785,538.671,0.0
52110.0,STARLINK-3687,PAYLOAD,2023-04-18 13:32:59,15.08847862,0.0001526,53.2163,140.2451,104.0236,256.0926,0.00030475,4.566e-05,0.0,0 STARLINK-3687,1 52110U 22029Y   23108.56458128  .00004566  00000-0  30475-3 0  9990,2 52110  53.2163 140.2451 0001526 104.0236 256.0926 15.08847862 61341,6917.856,95.437,540.777,538.666,0.0
52110.0,STARLINK-3687,PAYLOAD,2023-04-19 08:37:37,15.08840521,0.000147,53.216,136.6804,86.0226,274.0934,9.4332e-05,1.214e-05,0.0,0 STARLINK-3687,1 52110U 22029Y   23109.35946652  .00001214  00000-0  94332-4 0  9992,2 52110  53.2160 136.6804 0001470  86.0226 274.0934 15.08840521 61462,6917.879,95.438,540.761,538.727,0.0
52110.0,STARLINK-3687,PAYLOAD,2023-04-19 13:23:47,15.08844153,0.0001465,53.2162,135.787,92.5846,267.5314,0.00014128,1.961e-05,0.0,0 STARLINK-3687,1 52110U 22029Y   23109.55818420  .00001961  00000-0  14128-3 0  9998,2 52110  53.2162 135.7870 0001465  92.5846 267.5314 15.08844153 61498,6917.868,95.437,540.746,538.719,0.0
52110.0,STARLINK-3687,PAYLOAD,2023-04-20 10:03:47,15.08842303,0.0001561,53.2157,131.9212,107.4533,252.663,7.5262e-05,9.1e-06,0.0,0 STARLINK-3687,1 52110U 22029Y   23110.41930480  .00000910  00000-0  75262-4 0  9996,2 52110  53.2157 131.9212 0001561 107.4533 252.6630 15.08842303 61622,6917.873,95.437,540.818,538.658,0.0
52110.0,STARLINK-3687,PAYLOAD,2023-04-20 18:00:43,15.08838612,0.0001401,53.2157,130.4366,88.6209,271.4943,-2.746e-06,-3.32e-06,0.0,0 STARLINK-3687,1 52110U 22029Y   23110.75050712 -.00000332  00000-0 -27460-5 0  9992,2 52110  53.2157 130.4366 0001401  88.6209 271.4943 15.08838612 61678,6917.885,95.438,540.719,538.78,0.0
52110.0,STARLINK-3687,PAYLOAD,2023-04-21 11:29:58,15.08833716,0.0001431,53.2159,127.1655,102.6063,257.5089,1.0838e-05,-1.15e-06,0.0,0 STARLINK-3687,1 52110U 22029Y   23111.47915280 -.00000115  00000-0  10838-4 0  9990,2 52110  53.2159 127.1655 0001431 102.6063 257.5089 15.08833716 61780,6917.9,95.438,540.755,538.775,0.0
52110.0,STARLINK-3687,PAYLOAD,2023-04-21 17:51:31,15.08838649,0.0001314,53.2157,125.9764,94.8282,265.286,4.9995e-05,5.08e-06,0.0,0 STARLINK-3687,1 52110U 22029Y   23111.74411108  .00000508  00000-0  49995-4 0  9991,2 52110  53.2157 125.9764 0001314  94.8282 265.2860 15.08838649 61828,6917.885,95.438,540.659,538.841,0.0
52110.0,STARLINK-3687,PAYLOAD,2023-04-22 12:56:08,15.08850138,0.0001277,53.2153,122.4072,89.8471,270.2667,0.0002145,3.128e-05,0.0,0 STARLINK-3687,1 52110U 22029Y   23112.53898467  .00003128  00000-0  21450-3 0  9992,2 52110  53.2153 122.4072 0001277  89.8471 270.2667 15.08850138 61941,6917.849,95.437,540.598,538.831,0.0
52110.0,STARLINK-3687,PAYLOAD,2023-04-23 09:36:09,15.08839006,0.0001188,53.2144,118.5399,84.3278,275.7849,7.3401e-05,8.8e-06,0.0,0 STARLINK-3687,1 52110U 22029Y   23113.40011126  .00000880  00000-0  73401-4 0  9994,2 52110  53.2144 118.5399 0001188  84.3278 275.7849 15.08839006 62073,6917.883,95.438,540.57,538.927,0.0
52110.0,STARLINK-3687,PAYLOAD,2023-04-24 06:16:09,15.0886008,0.0001468,53.2162,114.6744,84.4447,275.6713,0.00031368,4.71e-05,0.0,0 STARLINK-3687,1 52110U 22029Y   23114.26122250  .00004710  00000-0  31368-3 0  9991,2 52110  53.2162 114.6744 0001468  84.4447 275.6713 15.08860080 62204,6917.819,95.436,540.7,538.668,0.0
52110.0,STARLINK-3687,PAYLOAD,2023-04-24 17:23:51,15.08859514,0.0001359,53.2157,112.5919,92.8618,267.253,0.00022343,3.272e-05,0.0,0 STARLINK-3687,1 52110U 22029Y   23114.72489907  .00003272  00000-0  22343-3 0  9992,2 52110  53.2157 112.5919 0001359  92.8618 267.2530 15.08859514 62272,6917.821,95.436,540.626,538.746,0.0
52110.0,STARLINK-3687,PAYLOAD,2023-04-25 09:17:43,15.08840032,0.0001798,53.2178,109.6191,90.24,269.8798,1.7521e-05,-9e-08,0.0,0 STARLINK-3687,1 52110U 22029Y   23115.38730898 -.00000009  00000-0  17521-4 0  9992,2 52110  53.2178 109.6191 0001798  90.2400 269.8798 15.08840032 62372,6917.88,95.438,540.989,538.501,0.0
52110.0,STARLINK-3687,PAYLOAD,2023-04-26 09:08:31,15.0883196,0.0001639,53.2171,105.1595,96.0969,264.021,3.6214e-06,-2.3e-06,0.0,0 STARLINK-3687,1 52110U 22029Y   23116.38091781 -.00000230  00000-0  36214-5 0  9991,2 52110  53.2171 105.1595 0001639  96.0969 264.0210 15.08831960 62525,6917.905,95.438,540.904,538.636,0.0
52110.0,STARLINK-3687,PAYLOAD,2023-04-27 08:59:17,15.08842652,0.0001378,53.2171,100.6995,112.2181,247.8957,0.00015353,2.157e-05,0.0,0 STARLINK-3687,1 52110U 22029Y   23117.37450889  .00002157  00000-0  15353-3 0  9997,2 52110  53.2171 100.6995 0001378 112.2181 247.8957 15.08842652 62679,6917.872,95.437,540.691,538.784,0.0
52110.0,STARLINK-3687,PAYLOAD,2023-04-28 05:39:19,15.08835965,0.0001337,53.2178,96.8352,100.7884,259.3259,9.2794e-05,1.189e-05,0.0,0 STARLINK-3687,1 52110U 22029Y   23118.23563884  .00001189  00000-0  92794-4 0  9992,2 52110  53.2178  96.8352 0001337 100.7884 259.3259 15.08835965 62803,6917.893,95.438,540.683,538.833,0.0
52110.0,STARLINK-3687,PAYLOAD,2023-04-28 08:50:05,15.08837189,0.0001291,53.2171,96.2393,99.1649,260.949,0.00010507,1.385e-05,0.0,0 STARLINK-3687,1 52110U 22029Y   23118.36811773  .00001385  00000-0  10507-3 0  9998,2 52110  53.2171  96.2393 0001291  99.1649 260.9490 15.08837189 62821,6917.889,95.438,540.647,538.861,0.0
52110.0,STARLINK-3687,PAYLOAD,2023-04-29 08:40:52,15.08843624,0.0001215,53.2167,91.7786,97.2381,262.8749,3.0274e-05,1.94e-06,0.0,0 STARLINK-3687,1 52110U 22029Y   23119.36171667  .00000194  00000-0  30274-4 0  9991,2 52110  53.2167  91.7786 0001215  97.2381 262.8749 15.08843624 62975,6917.869,95.437,540.575,538.894,0.0
52110.0,STARLINK-3687,PAYLOAD,2023-04-30 08:31:39,15.08840445,0.0001251,53.2171,87.3175,86.9257,273.1879,6.5561e-05,7.56e-06,0.0,0 STARLINK-3687,1 52110U 22029Y   23120.35531925  .00000756  00000-0  65561-4 0  9990,2 52110  53.2171  87.3175 0001251  86.9257 273.1879 15.08840445 63125,6917.879,95.438,540.609,538.879,0.0
